[{"OBJECT_NAME":"QIANFAN-1","OBJECT_ID":"2024-140A","EPOCH":"2026-03-04T14:34:28.760448","MEAN_MOTION":13.50999386,"ECCENTRICITY":0.00171933,"INCLINATION":88.9718,"RA_OF_ASC_NODE":290.8133,"ARG_OF_PERICENTER":344.4664,"MEAN_ANOMALY":15.5957,"EPHEMERIS_TYPE":0,"CLASSIFICATION_TYPE":"U","NORAD_CAT_ID":60379,"ELEMENT_SET_NO":999,"REV_AT_EPOCH":7840,"BSTAR":0.00015492337,"MEAN_MOTION_DOT":1.12e-6,"MEAN_MOTION_DDOT":0},{"OBJECT_NAME":"QIANFAN-2","OBJECT_ID":"2024-140B","EPOCH":"2026-03-04T15:15:50.893344","MEAN_MOTION":13.51003532,"ECCENTRICITY":0.0011678,"INCLINATION":88.9704,"RA_OF_ASC_NODE":290.6383,"ARG_OF_PERICENTER":317.535,"MEAN_ANOMALY":42.4897,"EPHEMERIS_TYPE":0,"CLASSIFICATION_TYPE":"U","NORAD_CAT_ID":60380,"ELEMENT_SET_NO":999,"REV_AT_EPOCH":7846,"BSTAR":0.00016663557,"MEAN_MOTION_DOT":1.2e-6,"MEAN_MOTION_DDOT":0},{"OBJECT_NAME":"QIANFAN-3","OBJECT_ID":"2024-140C","EPOCH":"2026-03-04T13:40:56.670240","MEAN_MOTION":13.50999439,"ECCENTRICITY":0.00131744,"INCLINATION":88.9697,"RA_OF_ASC_NODE":290.7716,"ARG_OF_PERICENTER":330.5604,"MEAN_ANOMALY":29.4803,"EPHEMERIS_TYPE":0,"CLASSIFICATION_TYPE":"U","NORAD_CAT_ID":60381,"ELEMENT_SET_NO":999,"REV_AT_EPOCH":7836,"BSTAR":0.00016003517,"MEAN_MOTION_DOT":1.15e-6,"MEAN_MOTION_DDOT":0},{"OBJECT_NAME":"QIANFAN-4","OBJECT_ID":"2024-140D","EPOCH":"2026-03-04T13:05:32.744832","MEAN_MOTION":13.50999808,"ECCENTRICITY":0.00119955,"INCLINATION":88.9722,"RA_OF_ASC_NODE":290.6925,"ARG_OF_PERICENTER":320.5261,"MEAN_ANOMALY":39.5015,"EPHEMERIS_TYPE":0,"CLASSIFICATION_TYPE":"U","NORAD_CAT_ID":60382,"ELEMENT_SET_NO":999,"REV_AT_EPOCH":7848,"BSTAR":0.00018124081,"MEAN_MOTION_DOT":1.29e-6,"MEAN_MOTION_DDOT":0},{"OBJECT_NAME":"QIANFAN-5","OBJECT_ID":"2024-140E","EPOCH":"2026-03-04T14:16:41.090592","MEAN_MOTION":13.51001769,"ECCENTRICITY":0.00147719,"INCLINATION":88.9697,"RA_OF_ASC_NODE":290.7944,"ARG_OF_PERICENTER":341.4847,"MEAN_ANOMALY":18.5765,"EPHEMERIS_TYPE":0,"CLASSIFICATION_TYPE":"U","NORAD_CAT_ID":60383,"ELEMENT_SET_NO":999,"REV_AT_EPOCH":7835,"BSTAR":0.00014434481,"MEAN_MOTION_DOT":1.05e-6,"MEAN_MOTION_DDOT":0},{"OBJECT_NAME":"QIANFAN-6","OBJECT_ID":"2024-140F","EPOCH":"2026-03-04T14:46:18.910560","MEAN_MOTION":13.51001594,"ECCENTRICITY":0.00122566,"INCLINATION":88.9723,"RA_OF_ASC_NODE":290.5604,"ARG_OF_PERICENTER":326.581,"MEAN_ANOMALY":33.4566,"EPHEMERIS_TYPE":0,"CLASSIFICATION_TYPE":"U","NORAD_CAT_ID":60384,"ELEMENT_SET_NO":999,"REV_AT_EPOCH":7855,"BSTAR":0.00017207736,"MEAN_MOTION_DOT":1.23e-6,"MEAN_MOTION_DDOT":0},{"OBJECT_NAME":"QIANFAN-7","OBJECT_ID":"2024-140G","EPOCH":"2026-03-04T14:32:28.267008","MEAN_MOTION":14.27771728,"ECCENTRICITY":0.0016515,"INCLINATION":88.9735,"RA_OF_ASC_NODE":284.1084,"ARG_OF_PERICENTER":126.1507,"MEAN_ANOMALY":234.1219,"EPHEMERIS_TYPE":0,"CLASSIFICATION_TYPE":"U","NORAD_CAT_ID":60385,"ELEMENT_SET_NO":999,"REV_AT_EPOCH":8207,"BSTAR":0.0001671319,"MEAN_MOTION_DOT":4.28e-6,"MEAN_MOTION_DDOT":0},{"OBJECT_NAME":"QIANFAN-8","OBJECT_ID":"2024-140H","EPOCH":"2026-03-04T14:58:09.094368","MEAN_MOTION":13.51003103,"ECCENTRICITY":0.00157597,"INCLINATION":88.9725,"RA_OF_ASC_NODE":290.7983,"ARG_OF_PERICENTER":327.2827,"MEAN_ANOMALY":32.7347,"EPHEMERIS_TYPE":0,"CLASSIFICATION_TYPE":"U","NORAD_CAT_ID":60386,"ELEMENT_SET_NO":999,"REV_AT_EPOCH":7840,"BSTAR":0.00016804474,"MEAN_MOTION_DOT":1.2e-6,"MEAN_MOTION_DDOT":0},{"OBJECT_NAME":"QIANFAN-9","OBJECT_ID":"2024-140J","EPOCH":"2026-03-04T14:22:35.245056","MEAN_MOTION":13.50997868,"ECCENTRICITY":0.0015462,"INCLINATION":88.9723,"RA_OF_ASC_NODE":290.8746,"ARG_OF_PERICENTER":327.2048,"MEAN_ANOMALY":32.8142,"EPHEMERIS_TYPE":0,"CLASSIFICATION_TYPE":"U","NORAD_CAT_ID":60387,"ELEMENT_SET_NO":999,"REV_AT_EPOCH":7838,"BSTAR":0.00014539594,"MEAN_MOTION_DOT":1.06e-6,"MEAN_MOTION_DDOT":0},{"OBJECT_NAME":"QIANFAN-10","OBJECT_ID":"2024-140K","EPOCH":"2026-03-04T14:28:20.468352","MEAN_MOTION":13.50996297,"ECCENTRICITY":0.00133272,"INCLINATION":88.9732,"RA_OF_ASC_NODE":290.2291,"ARG_OF_PERICENTER":303.4357,"MEAN_ANOMALY":56.5519,"EPHEMERIS_TYPE":0,"CLASSIFICATION_TYPE":"U","NORAD_CAT_ID":60388,"ELEMENT_SET_NO":999,"REV_AT_EPOCH":7851,"BSTAR":0.00015411952,"MEAN_MOTION_DOT":1.11e-6,"MEAN_MOTION_DDOT":0},{"OBJECT_NAME":"QIANFAN-11","OBJECT_ID":"2024-140L","EPOCH":"2026-03-04T13:35:13.797888","MEAN_MOTION":13.51003114,"ECCENTRICITY":0.00134831,"INCLINATION":88.9658,"RA_OF_ASC_NODE":290.7593,"ARG_OF_PERICENTER":327.8981,"MEAN_ANOMALY":32.1348,"EPHEMERIS_TYPE":0,"CLASSIFICATION_TYPE":"U","NORAD_CAT_ID":60389,"ELEMENT_SET_NO":999,"REV_AT_EPOCH":7816,"BSTAR":0.00016422487,"MEAN_MOTION_DOT":1.18e-6,"MEAN_MOTION_DDOT":0},{"OBJECT_NAME":"QIANFAN-12","OBJECT_ID":"2024-140M","EPOCH":"2026-03-04T14:04:51.478752","MEAN_MOTION":13.51000827,"ECCENTRICITY":0.00125618,"INCLINATION":88.9702,"RA_OF_ASC_NODE":290.8362,"ARG_OF_PERICENTER":337.0336,"MEAN_ANOMALY":23.0252,"EPHEMERIS_TYPE":0,"CLASSIFICATION_TYPE":"U","NORAD_CAT_ID":60390,"ELEMENT_SET_NO":999,"REV_AT_EPOCH":7829,"BSTAR":0.00018257582,"MEAN_MOTION_DOT":1.3e-6,"MEAN_MOTION_DDOT":0},{"OBJECT_NAME":"QIANFAN-13","OBJECT_ID":"2024-140N","EPOCH":"2026-03-04T15:09:59.740416","MEAN_MOTION":13.51001283,"ECCENTRICITY":0.00124708,"INCLINATION":88.9714,"RA_OF_ASC_NODE":290.9415,"ARG_OF_PERICENTER":339.7804,"MEAN_ANOMALY":20.2851,"EPHEMERIS_TYPE":0,"CLASSIFICATION_TYPE":"U","NORAD_CAT_ID":60391,"ELEMENT_SET_NO":999,"REV_AT_EPOCH":7832,"BSTAR":0.00016953901,"MEAN_MOTION_DOT":1.21e-6,"MEAN_MOTION_DDOT":0},{"OBJECT_NAME":"QIANFAN-14","OBJECT_ID":"2024-140P","EPOCH":"2026-03-04T13:58:47.789184","MEAN_MOTION":13.51001062,"ECCENTRICITY":0.00161314,"INCLINATION":88.9693,"RA_OF_ASC_NODE":290.8268,"ARG_OF_PERICENTER":337.9983,"MEAN_ANOMALY":22.0474,"EPHEMERIS_TYPE":0,"CLASSIFICATION_TYPE":"U","NORAD_CAT_ID":60392,"ELEMENT_SET_NO":999,"REV_AT_EPOCH":7832,"BSTAR":0.00017449788,"MEAN_MOTION_DOT":1.25e-6,"MEAN_MOTION_DDOT":0},{"OBJECT_NAME":"QIANFAN-15","OBJECT_ID":"2024-140Q","EPOCH":"2026-03-04T14:10:51.178368","MEAN_MOTION":13.50998988,"ECCENTRICITY":0.00115303,"INCLINATION":88.9716,"RA_OF_ASC_NODE":290.8019,"ARG_OF_PERICENTER":325.7281,"MEAN_ANOMALY":34.3125,"EPHEMERIS_TYPE":0,"CLASSIFICATION_TYPE":"U","NORAD_CAT_ID":60393,"ELEMENT_SET_NO":999,"REV_AT_EPOCH":7831,"BSTAR":0.00017079599,"MEAN_MOTION_DOT":1.22e-6,"MEAN_MOTION_DDOT":0},{"OBJECT_NAME":"QIANFAN-16","OBJECT_ID":"2024-140R","EPOCH":"2026-03-04T13:52:50.805120","MEAN_MOTION":13.50997526,"ECCENTRICITY":0.00141946,"INCLINATION":88.9719,"RA_OF_ASC_NODE":290.9257,"ARG_OF_PERICENTER":342.9622,"MEAN_ANOMALY":17.1051,"EPHEMERIS_TYPE":0,"CLASSIFICATION_TYPE":"U","NORAD_CAT_ID":60394,"ELEMENT_SET_NO":999,"REV_AT_EPOCH":7822,"BSTAR":0.00017055919,"MEAN_MOTION_DOT":1.22e-6,"MEAN_MOTION_DDOT":0},{"OBJECT_NAME":"QIANFAN-17","OBJECT_ID":"2024-140S","EPOCH":"2026-03-04T15:33:44.104896","MEAN_MOTION":13.51004291,"ECCENTRICITY":0.00143865,"INCLINATION":88.973,"RA_OF_ASC_NODE":290.9733,"ARG_OF_PERICENTER":336.047,"MEAN_ANOMALY":24.001,"EPHEMERIS_TYPE":0,"CLASSIFICATION_TYPE":"U","NORAD_CAT_ID":60395,"ELEMENT_SET_NO":999,"REV_AT_EPOCH":7919,"BSTAR":0.00016247104,"MEAN_MOTION_DOT":1.17e-6,"MEAN_MOTION_DDOT":0}]
