QIANFAN-1               
1 60379U 24140A   26063.60727732  .00000112  00000+0  15492-3 0  9994
2 60379  88.9718 290.8133 0017193 344.4664  15.5957 13.50999386 78400
QIANFAN-2               
1 60380U 24140B   26063.63600571  .00000120  00000+0  16664-3 0  9991
2 60380  88.9704 290.6383 0011678 317.5350  42.4897 13.51003532 78465
QIANFAN-3               
1 60381U 24140C   26063.57010035  .00000115  00000+0  16004-3 0  9997
2 60381  88.9697 290.7716 0013174 330.5604  29.4803 13.50999439 78368
QIANFAN-4               
1 60382U 24140D   26063.54551788  .00000129  00000+0  18124-3 0  9990
2 60382  88.9722 290.6925 0011995 320.5261  39.5015 13.50999808 78486
QIANFAN-5               
1 60383U 24140E   26063.59492003  .00000105  00000+0  14434-3 0  9994
2 60383  88.9697 290.7944 0014771 341.4847  18.5765 13.51001769 78353
QIANFAN-6               
1 60384U 24140F   26063.61549665  .00000123  00000+0  17208-3 0  9997
2 60384  88.9723 290.5604 0012256 326.5810  33.4566 13.51001594 78558
QIANFAN-7               
1 60385U 24140G   26063.60588272  .00000428  00000+0  16713-3 0  9992
2 60385  88.9735 284.1084 0016515 126.1507 234.1219 14.27771728 82076
QIANFAN-8               
1 60386U 24140H   26063.62371637  .00000120  00000+0  16804-3 0  9990
2 60386  88.9725 290.7983 0015759 327.2827  32.7347 13.51003103 78402
QIANFAN-9               
1 60387U 24140J   26063.59901904  .00000106  00000+0  14540-3 0  9992
2 60387  88.9723 290.8746 0015462 327.2048  32.8142 13.50997868 78385
QIANFAN-10              
1 60388U 24140K   26063.60301468  .00000111  00000+0  15412-3 0  9999
2 60388  88.9732 290.2291 0013327 303.4357  56.5519 13.50996297 78513
QIANFAN-11              
1 60389U 24140L   26063.56613192  .00000118  00000+0  16422-3 0  9994
2 60389  88.9658 290.7593 0013483 327.8981  32.1348 13.51003114 78166
QIANFAN-12              
1 60390U 24140M   26063.58670693  .00000130  00000+0  18258-3 0  9990
2 60390  88.9702 290.8362 0012561 337.0336  23.0252 13.51000827 78291
QIANFAN-13              
1 60391U 24140N   26063.63194144  .00000121  00000+0  16954-3 0  9990
2 60391  88.9714 290.9415 0012470 339.7804  20.2851 13.51001283 78328
QIANFAN-14              
1 60392U 24140P   26063.58249756  .00000125  00000+0  17450-3 0  9991
2 60392  88.9693 290.8268 0016131 337.9983  22.0474 13.51001062 78322
QIANFAN-15              
1 60393U 24140Q   26063.59087012  .00000122  00000+0  17080-3 0  9994
2 60393  88.9716 290.8019 0011530 325.7281  34.3125 13.50998988 78316
QIANFAN-16              
1 60394U 24140R   26063.57836580  .00000122  00000+0  17056-3 0  9998
2 60394  88.9719 290.9257 0014194 342.9622  17.1051 13.50997526 78228
QIANFAN-17              
1 60395U 24140S   26063.64842714  .00000117  00000+0  16247-3 0  9998
2 60395  88.9730 290.9733 0014386 336.0470  24.0010 13.51004291 79197
